APRIZESAT 2             
1 28366U 04025A   20026.31605342  .00000022  00000-0  20539-4 0  9997
2 28366  98.2823 282.9205 0108868  76.5485 284.7808 14.36693421816442
SAUDICOMSAT 1           
1 28369U 04025D   20026.84401178  .00000026  00000-0  17577-4 0  9991
2 28369  98.3212 338.6328 0033070 332.7077  27.2379 14.52530556825225
SAUDICOMSAT 2           
1 28370U 04025E   20026.79759417  .00000046  00000-0  24553-4 0  9993
2 28370  98.4159 335.1436 0058751 128.3503 232.2990 14.47463655822409
APRIZESAT 1             
1 28372U 04025G   20026.82856597  .00000014  00000-0  15369-4 0  9996
2 28372  98.3752 336.5174 0047382  55.7445 304.8223 14.49613363823725
NANOSAT-1               
1 28493U 04049B   20026.34041259  .00000058  00000-0  16719-4 0  9992
2 28493  98.1250 115.9545 0004295 185.7721 174.3438 14.73549683811273
SAUDICOMSAT 7           
1 31119U 07012C   20026.79865894  .00000018  00000-0  13181-4 0  9998
2 31119  98.0804 335.7505 0059034 306.3454  53.2307 14.61764628681268
SAUDICOMSAT 6           
1 31121U 07012E   20027.09648335  .00000043  00000-0  19067-4 0  9991
2 31121  98.1354 330.6591 0077298  29.7242 330.8316 14.58564270679846
SAUDICOMSAT 5           
1 31124U 07012H   20026.85669506  .00000005  00000-0  10270-4 0  9995
2 31124  98.0443 338.5970 0050302 261.6886  97.8611 14.63465861682027
SAUDICOMSAT 3           
1 31125U 07012J   20027.08434143  .00000014  00000-0  11479-4 0  9991
2 31125  98.0057 341.7570 0042415 216.7945 143.0345 14.65218731682824
SAUDICOMSAT 4           
1 31127U 07012L   20027.08060395  .00000030  00000-0  15957-4 0  9990
2 31127  98.1084 333.7492 0067788 345.5924  14.3342 14.60278586680610
APRIZESAT 4             
1 35684U 09041D   20027.05587682  .00000002  00000-0  81129-5 0  9990
2 35684  98.2573   1.8343 0045864 270.1553  89.4402 14.79249518566139
APRIZESAT 3             
1 35686U 09041F   20026.37491850  .00000040  00000-0  11009-4 0  9998
2 35686  98.2048  78.7525 0073543 153.5644 206.9353 14.87356992568860
AISSAT 1                
1 36797U 10035C   20027.08158230  .00000077  00000-0  15319-4 0  9996
2 36797  98.1493 172.1784 0012275 124.0452 236.1929 14.86260636516975
S-NET D                 
1 43186U 18014G   20026.98735820 -.00000397  00000-0 -29645-4 0  9999
2 43186  97.7028 297.0740 0010900 349.5334  10.5659 14.96744005108383
S-NET B                 
1 43187U 18014H   20026.98717424 -.00000396  00000-0 -29549-4 0  9992
2 43187  97.7026 297.0564 0010904 349.4597  10.6394 14.96744060108388
S-NET A                 
1 43188U 18014J   20026.98701814 -.00000392  00000-0 -29189-4 0  9995
2 43188  97.7029 297.0806 0010896 349.5859  10.5135 14.96743802108388
S-NET C                 
1 43189U 18014K   20026.85368350 -.00000390  00000-0 -29023-4 0  9991
2 43189  97.7025 296.9211 0010917 349.9144  10.1856 14.96743328106914